{
  "type": "FeatureCollection",
  "features": [
    {
      "type": "Feature",
      "id": "silk-road-southern",
      "geometry": {
        "type": "LineString",
        "coordinates": [
          [
            76.00818,
            39.48273
          ],
          [
            76.36576,
            39.36538
          ],
          [
            76.62925,
            39.2523
          ],
          [
            76.8334,
            39.15163
          ],
          [
            77.01322,
            38.93611
          ],
          [
            77.09635,
            38.75333
          ],
          [
            77.19569,
            38.59364
          ],
          [
            77.22933,
            38.48468
          ],
          [
            77.29029,
            38.36513
          ],
          [
            77.33488,
            38.13829
          ],
          [
            77.43401,
            37.88702
          ],
          [
            77.54654,
            37.82491
          ],
          [
            77.89553,
            37.80005
          ],
          [
            78.11749,
            37.68942
          ],
          [
            78.25778,
            37.61801
          ],
          [
            78.63813,
            37.45151
          ],
          [
            79.00969,
            37.31657
          ],
          [
            79.29495,
            37.2891
          ],
          [
            79.6623,
            37.16075
          ],
          [
            79.96103,
            37.0191
          ],
          [
            80.25827,
            37.03744
          ],
          [
            80.58262,
            37.01071
          ],
          [
            80.81778,
            36.94624
          ],
          [
            81.24023,
            36.88303
          ],
          [
            81.51526,
            36.8644
          ],
          [
            81.7206,
            36.83199
          ],
          [
            81.86553,
            36.85312
          ],
          [
            82.19614,
            36.92406
          ],
          [
            82.48151,
            36.94843
          ],
          [
            82.74501,
            37.01668
          ],
          [
            82.87731,
            37.05357
          ],
          [
            83.11481,
            37.14921
          ],
          [
            83.30504,
            37.25005
          ],
          [
            83.51854,
            37.35737
          ],
          [
            83.69131,
            37.46443
          ],
          [
            83.93144,
            37.58519
          ],
          [
            84.1965,
            37.70703
          ],
          [
            84.4495,
            37.81152
          ],
          [
            84.75689,
            37.91129
          ],
          [
            85.09055,
            38.01175
          ],
          [
            85.37685,
            38.0451
          ],
          [
            85.53998,
            38.10141
          ],
          [
            86.0203,
            38.31481
          ],
          [
            86.24338,
            38.42878
          ],
          [
            86.57786,
            38.5381
          ],
          [
            86.92196,
            38.58433
          ],
          [
            87.20018,
            38.63673
          ],
          [
            87.37592,
            38.64366
          ],
          [
            87.46291,
            38.71489
          ],
          [
            87.64134,
            38.79944
          ],
          [
            87.94416,
            38.91793
          ],
          [
            88.09138,
            38.98433
          ],
          [
            88.29469,
            39.07109
          ],
          [
            88.68382,
            39.15809
          ],
          [
            88.90055,
            39.23911
          ],
          [
            88.98764,
            39.24604
          ],
          [
            89.9101,
            39.58041
          ],
          [
            90.46808,
            39.70693
          ],
          [
            90.89148,
            39.90075
          ],
          [
            91.43071,
            40.05736
          ],
          [
            92.09899,
            40.19096
          ],
          [
            92.88297,
            40.31271
          ],
          [
            93.44937,
            40.40458
          ],
          [
            94.1469,
            40.38632
          ],
          [
            94.27164,
            40.34851
          ],
          [
            94.59253,
            40.24412
          ],
          [
            94.68933,
            40.21974
          ]
        ]
      },
      "properties": {
        "id": "silk-road-southern",
        "name_zh": "絲綢之路南道（DSR 測繪高精度：喀什－莎車－和田－尼雅－且末－米蘭－樓蘭－敦煌）",
        "route_type": "southern",
        "color": "#ff3366",
        "points_count": 67,
        "source": "Digital Silk Road (DSR) 歷史測繪軌跡",
        "description": "漢代西域南道高精度測繪路徑：沿崑崙山北麓綠洲鏈與古河道蜿蜒，自玉門關/陽關西出經樓蘭、米蘭，過且末、安迪爾、精絕尼雅、于闐（和田）、莎車至疏勒（喀什）。"
      }
    },
    {
      "type": "Feature",
      "id": "silk-road-northern",
      "geometry": {
        "type": "LineString",
        "coordinates": [
          [
            76.0056,
            39.48966
          ],
          [
            76.12616,
            39.49538
          ],
          [
            76.44675,
            39.50264
          ],
          [
            76.84894,
            39.54128
          ],
          [
            77.23602,
            39.56456
          ],
          [
            77.6582,
            39.60276
          ],
          [
            78.07048,
            39.66808
          ],
          [
            78.54116,
            39.76339
          ],
          [
            78.85561,
            39.9596
          ],
          [
            79.17326,
            40.16452
          ],
          [
            79.47904,
            40.40948
          ],
          [
            79.68956,
            40.60819
          ],
          [
            79.98502,
            40.82997
          ],
          [
            80.27663,
            41.11705
          ],
          [
            80.37278,
            41.17432
          ],
          [
            80.61354,
            41.33029
          ],
          [
            80.88571,
            41.40109
          ],
          [
            81.26645,
            41.45806
          ],
          [
            81.8695,
            41.49259
          ],
          [
            82.44608,
            41.55572
          ],
          [
            82.70805,
            41.6269
          ],
          [
            82.98666,
            41.71762
          ],
          [
            83.28,
            41.78389
          ],
          [
            83.63638,
            41.7954
          ],
          [
            83.97402,
            41.85474
          ],
          [
            84.33789,
            41.93448
          ],
          [
            84.74648,
            41.97274
          ],
          [
            85.04727,
            41.97414
          ],
          [
            85.5984,
            41.93793
          ],
          [
            85.92019,
            41.86197
          ],
          [
            86.20606,
            41.77879
          ],
          [
            86.38129,
            41.88456
          ],
          [
            86.56511,
            42.062
          ],
          [
            86.62398,
            42.14782
          ],
          [
            86.90476,
            42.31807
          ],
          [
            87.17403,
            42.50283
          ],
          [
            87.49318,
            42.66116
          ],
          [
            87.87649,
            42.77356
          ],
          [
            88.17023,
            42.80798
          ],
          [
            88.44466,
            42.82604
          ],
          [
            88.6233,
            42.81236
          ],
          [
            89.1209,
            42.96634
          ],
          [
            89.56967,
            42.92555
          ],
          [
            89.77113,
            42.81053
          ],
          [
            90.16819,
            42.93992
          ],
          [
            91.51002,
            43.07809
          ],
          [
            91.99785,
            43.11023
          ],
          [
            92.3852,
            43.07275
          ],
          [
            92.81948,
            43.00488
          ],
          [
            93.47331,
            42.86234
          ],
          [
            94.35218,
            42.35578
          ],
          [
            94.62901,
            41.99069
          ],
          [
            94.75244,
            41.68183
          ],
          [
            94.87321,
            41.3991
          ],
          [
            94.84454,
            41.01697
          ],
          [
            94.75319,
            40.58939
          ],
          [
            94.80659,
            40.22967
          ],
          [
            94.78608,
            40.19527
          ]
        ]
      },
      "properties": {
        "id": "silk-road-northern",
        "name_zh": "絲綢之路中/北道（DSR 測繪高精度：喀什－阿克蘇－庫車龜茲－庫爾勒－高昌－哈密－敦煌）",
        "route_type": "northern",
        "color": "#a855f7",
        "points_count": 58,
        "source": "Digital Silk Road (DSR) 歷史測繪軌跡",
        "description": "漢中道／唐北道高精度測繪路徑：沿天山南麓綠洲延伸，經哈密、吐魯番高昌、焉耆、庫爾勒、龜茲（庫車）、姑墨（阿克蘇）至疏勒（喀什）。"
      }
    },
    {
      "type": "Feature",
      "id": "silk-road-charkhlik-korla",
      "geometry": {
        "type": "LineString",
        "coordinates": [
          [
            86.15086,
            41.74883
          ],
          [
            86.20231,
            41.60456
          ],
          [
            86.24318,
            41.43739
          ],
          [
            86.32812,
            41.22628
          ],
          [
            86.45689,
            41.1144
          ],
          [
            86.59528,
            41.04228
          ],
          [
            86.75817,
            40.95657
          ],
          [
            86.95249,
            40.85768
          ],
          [
            87.07965,
            40.79811
          ],
          [
            87.27993,
            40.70783
          ],
          [
            87.45809,
            40.69422
          ],
          [
            87.58507,
            40.62263
          ],
          [
            87.72604,
            40.57084
          ],
          [
            87.87782,
            40.48374
          ],
          [
            88.03546,
            40.42278
          ],
          [
            88.17201,
            40.36584
          ],
          [
            88.23873,
            40.22402
          ],
          [
            88.34015,
            40.13566
          ],
          [
            88.40163,
            40.04028
          ],
          [
            88.39702,
            39.92711
          ],
          [
            88.38817,
            39.80121
          ],
          [
            88.384,
            39.69741
          ],
          [
            88.39827,
            39.59468
          ],
          [
            88.33147,
            39.47595
          ],
          [
            88.2713,
            39.41385
          ],
          [
            88.23516,
            39.28923
          ],
          [
            88.18978,
            39.19362
          ],
          [
            88.18004,
            39.08526
          ],
          [
            88.17132,
            39.01486
          ]
        ]
      },
      "properties": {
        "id": "silk-road-charkhlik-korla",
        "name_zh": "庫爾勒－若羌沙漠穿越道（Charkhlik-Korla Route）",
        "route_type": "connecting",
        "color": "#f97316",
        "points_count": 29,
        "source": "Digital Silk Road (DSR) 歷史測繪軌跡",
        "description": "南北道穿越通道：連接天山南麓庫爾勒與崑崙山北麓若羌（鄯善/米蘭），為歷史上橫穿羅布沙漠西緣之重要通道。"
      }
    }
  ]
}